[{"OBJECT_NAME":"STARLINK-4037","OBJECT_ID":"2022-053H","EPOCH":"2026-03-09T11:22:43.567104","MEAN_MOTION":15.08807028,"ECCENTRICITY":0.00016304,"INCLINATION":53.2175,"RA_OF_ASC_NODE":155.092,"ARG_OF_PERICENTER":112.4022,"MEAN_ANOMALY":247.7144,"EPHEMERIS_TYPE":0,"CLASSIFICATION_TYPE":"U","NORAD_CAT_ID":52663,"ELEMENT_SET_NO":999,"REV_AT_EPOCH":21101,"BSTAR":0.00034878923,"MEAN_MOTION_DOT":5.262e-5,"MEAN_MOTION_DDOT":0},{"OBJECT_NAME":"IRIDIUM 33 DEB","OBJECT_ID":"1997-051PF","EPOCH":"2026-03-08T20:08:48.628608","MEAN_MOTION":15.0410284,"ECCENTRICITY":0.00301759,"INCLINATION":86.2075,"RA_OF_ASC_NODE":10.7469,"ARG_OF_PERICENTER":217.121,"MEAN_ANOMALY":142.7938,"EPHEMERIS_TYPE":0,"CLASSIFICATION_TYPE":"U","NORAD_CAT_ID":35080,"ELEMENT_SET_NO":999,"REV_AT_EPOCH":70973,"BSTAR":0.01054144,"MEAN_MOTION_DOT":0.00150308,"MEAN_MOTION_DDOT":0}]
